GLOBALSTAR M024         
1 25883U 99043A   24186.91766697 -.00000032  00000+0  11618-2 0  9997
2 25883  52.0018  84.1773 0000951 277.8007 165.2521 11.10156627 76296
GLOBALSTAR M027         
1 25884U 99043B   24186.92791826 -.00000124  00000+0 -22841-2 0  9994
2 25884  52.0180 152.2977 0020908 150.4954 209.7023 11.04369069102875
GLOBALSTAR M053         
1 25886U 99043D   24186.97761039 -.00000046  00000+0  65430-3 0  9998
2 25886  51.9975 265.5894 0003908 208.4169 322.5104 11.27656439 80274
GLOBALSTAR M058         
1 25907U 99049A   24186.82656968 -.00000132  00000+0 -63998-3 0  9990
2 25907  51.9963 316.7061 0001658 337.2176  22.8585 11.93180611111285
GLOBALSTAR M033         
1 25909U 99049C   24186.88852242 -.00000114  00000+0 -21825-3 0  9994
2 25909  51.9899 245.9871 0012469 271.1945  88.7474 12.20273141493349
